NORAD_CAT_ID,OBJECT_NAME,OBJECT_TYPE,EPOCH,MEAN_MOTION,ECCENTRICITY,INCLINATION,RA_OF_ASC_NODE,ARG_OF_PERICENTER,MEAN_ANOMALY,BSTAR,MEAN_MOTION_DOT,MEAN_MOTION_DDOT,TLE_LINE0,TLE_LINE1,TLE_LINE2,SEMIMAJOR_AXIS,PERIOD,APOGEE,PERIGEE,DECAYED
49729.0,STARLINK-3251,PAYLOAD,2022-07-09 07:54:17,15.08855397,0.0003231,53.2174,51.7524,81.4555,278.6803,0.00014344,1.996e-05,0.0,0 STARLINK-3251,1 49729U 21115F   22190.32936854  .00001996  00000-0  14344-3 0  9999,2 49729  53.2174  51.7524 0003231  81.4555 278.6803 15.08855397 33197,6917.833000000001,95.437,541.933,537.4630000000002,0.0
49729.0,STARLINK-3251,PAYLOAD,2022-07-09 14:15:49,15.08857515,0.0003208,53.2174,50.5625,82.427,277.7086,0.00015044,2.108e-05,0.0,0 STARLINK-3251,1 49729U 21115F   22190.59432503  .00002108  00000-0  15044-3 0  9994,2 49729  53.2174  50.5625 0003208  82.4270 277.7086 15.08857515 33237,6917.8269999999975,95.436,541.911,537.4730000000002,0.0
49729.0,STARLINK-3251,PAYLOAD,2022-07-09 23:48:10,15.08804288,0.000309,53.2177,48.7787,80.6797,279.4545,-0.00069579,-0.00011335,0.0,0 STARLINK-3251,1 49729U 21115F   22190.99179022 -.00011335  00000-0 -69579-3 0  9998,2 49729  53.2177  48.7787 0003090  80.6797 279.4545 15.08804288 34409,6917.99,95.44,541.992,537.717,0.0
49729.0,STARLINK-3251,PAYLOAD,2022-07-10 07:45:06,15.08803522,0.0002939,53.2173,47.2931,83.2486,276.884,-0.00055972,-9.177e-05,0.0,0 STARLINK-3251,1 49729U 21115F   22191.32299685 -.00009177  00000-0 -55972-3 0  9997,2 49729  53.2173  47.2931 0002939  83.2486 276.8840 15.08803522 33346,6917.9919999999975,95.44,541.89,537.8240000000002,0.0
49729.0,STARLINK-3251,PAYLOAD,2022-07-10 18:52:49,15.08810972,0.0002628999999999,53.2169,45.2114,81.1393,278.9897,0.00027012,4.01e-05,0.0,0 STARLINK-3251,1 49729U 21115F   22191.78668237  .00004010  00000-0  27012-3 0  9993,2 49729  53.2169  45.2114 0002629  81.1393 278.9897 15.08810972 34525,6917.969,95.439,541.653,538.015,0.0
49729.0,STARLINK-3251,PAYLOAD,2022-07-10 20:28:12,15.08812955,0.0002617,53.2168,44.9141,80.8499,279.2789,0.00038396,5.823e-05,0.0,0 STARLINK-3251,1 49729U 21115F   22191.85292384  .00005823  00000-0  38396-3 0  9997,2 49729  53.2168  44.9141 0002617  80.8499 279.2789 15.08812955 33425,6917.9630000000025,95.439,541.638,538.018,0.0
49729.0,STARLINK-3251,PAYLOAD,2022-07-10 22:03:36,15.08809156,0.0002506,53.2167,44.6166,80.0808,280.0467,0.00094258,0.00014733,0.0,0 STARLINK-3251,1 49729U 21115F   22191.91916795  .00014733  00000-0  94258-3 0  9992,2 49729  53.2167  44.6166 0002506  80.0808 280.0467 15.08809156 33434,6917.975,95.44,541.573,538.106,0.0
49729.0,STARLINK-3251,PAYLOAD,2022-07-11 20:19:00,15.08840286,0.0002437,53.2167,40.4536,80.0059,280.1209,0.00112,0.00017582,0.0,0 STARLINK-3251,1 49729U 21115F   22192.84653778  .00017582  00000-0  11200-2 0  9994,2 49729  53.2167  40.4536 0002437  80.0059 280.1209 15.08840286 34682,6917.88,95.438,541.43,538.059,0.0
49729.0,STARLINK-3251,PAYLOAD,2022-07-12 07:26:41,15.08885945,0.0002333,53.2172,38.3713,85.8571,274.2688,0.0023584,0.00037494,0.0,0 STARLINK-3251,1 49729U 21115F   22193.31020761  .00037494  00000-0  23584-2 0  9999,2 49729  53.2172  38.3713 0002333  85.8571 274.2688 15.08885945 34752,6917.74,95.435,541.219,537.991,0.0
49729.0,STARLINK-3251,PAYLOAD,2022-07-12 20:09:46,15.08876113,0.0002286,53.2172,35.9931,85.4633,274.66200000000003,0.00091502,0.00014319,0.0,0 STARLINK-3251,1 49729U 21115F   22193.84011915  .00014319  00000-0  91502-3 0  9995,2 49729  53.2172  35.9931 0002286  85.4633 274.6620 15.08876113 34835,6917.77,95.435,541.216,538.054,0.0
49729.0,STARLINK-3251,PAYLOAD,2022-07-13 20:00:32,15.0886524,0.000281,53.2174,31.5315,91.9408,268.1906,0.00071761,0.00011159,0.0,0 STARLINK-3251,1 49729U 21115F   22194.83370970  .00011159  00000-0  71761-3 0  9998,2 49729  53.2174  31.5315 0002810  91.9408 268.1906 15.08865240 34980,6917.803000000001,95.436,541.612,537.724,0.0
49729.0,STARLINK-3251,PAYLOAD,2022-07-14 05:32:51,15.0883412,0.0001413,53.2178,29.7454,75.5683,284.5466,0.0002921999999999,4.365e-05,0.0,0 STARLINK-3251,1 49729U 21115F   22195.23115098  .00004365  00000-0  29220-3 0  9995,2 49729  53.2178  29.7454 0001413  75.5683 284.5466 15.08834120 35042,6917.898,95.438,540.741,538.786,0.0
49729.0,STARLINK-3251,PAYLOAD,2022-07-14 11:54:24,15.088269,0.0001708,53.2175,28.558000000000003,81.1967,278.9219,0.00016606,2.355e-05,0.0,0 STARLINK-3251,1 49729U 21115F   22195.49611600  .00002355  00000-0  16606-3 0  9994,2 49729  53.2175  28.5580 0001708  81.1967 278.9219 15.08826900 33971,6917.92,95.438,540.967,538.604,0.0
49729.0,STARLINK-3251,PAYLOAD,2022-07-14 19:51:19,15.08841337,0.0001794,53.2176,27.0715,84.0888,276.0308,0.00010219,1.339e-05,0.0,0 STARLINK-3251,1 49729U 21115F   22195.82731328  .00001339  00000-0  10219-3 0  9996,2 49729  53.2176  27.0715 0001794  84.0888 276.0308 15.08841337 34021,6917.876,95.437,540.982,538.5,0.0
49729.0,STARLINK-3251,PAYLOAD,2022-07-15 13:20:34,15.0883771,0.0001837,53.2172,23.8004,85.8533,274.2669,0.00016465,2.333e-05,0.0,0 STARLINK-3251,1 49729U 21115F   22196.55595649  .00002333  00000-0  16465-3 0  9995,2 49729  53.2172  23.8004 0001837  85.8533 274.2669 15.08837710 35241,6917.887,95.438,541.023,538.482,0.0
49729.0,STARLINK-3251,PAYLOAD,2022-07-15 19:42:07,15.08834972,0.0001758,53.2176,22.6113,87.571,272.5483,0.000183,2.625e-05,0.0,0 STARLINK-3251,1 49729U 21115F   22196.82091826  .00002625  00000-0  18300-3 0  9997,2 49729  53.2176  22.6113 0001758  87.5710 272.5483 15.08834972 34174,6917.896,95.438,540.977,538.545,0.0
49729.0,STARLINK-3251,PAYLOAD,2022-07-16 11:35:58,15.08837065,0.0001849,53.2187,19.6374,86.5676,273.5528,0.0001274,1.74e-05,0.0,0 STARLINK-3251,1 49729U 21115F   22197.48331884  .00001740  00000-0  12740-3 0  9990,2 49729  53.2187  19.6374 0001849  86.5676 273.5528 15.08837065 34270,6917.889,95.438,541.033,538.475,0.0
49729.0,STARLINK-3251,PAYLOAD,2022-07-16 19:32:54,15.08838354,0.0001759,53.2184,18.1501,83.1657,276.9535,4.844100000000001e-05,4.83e-06,0.0,0 STARLINK-3251,1 49729U 21115F   22197.81451840  .00000483  00000-0  48441-4 0  9993,2 49729  53.2184  18.1501 0001759  83.1657 276.9535 15.08838354 35431,6917.885,95.438,540.967,538.534,0.0
49729.0,STARLINK-3251,PAYLOAD,2022-07-16 21:08:17,15.08839767,0.0001793,53.2184,17.8528,83.9906,276.1291,6.3134e-05,7.17e-06,0.0,0 STARLINK-3251,1 49729U 21115F   22197.88075766  .00000717  00000-0  63134-4 0  9995,2 49729  53.2184  17.8528 0001793  83.9906 276.1291 15.08839767 34337,6917.880999999999,95.438,540.986,538.506,0.0
49729.0,STARLINK-3251,PAYLOAD,2022-07-17 13:02:08,15.08838432,0.0001616,53.2184,14.8791,86.6825,273.4352,0.00011956,1.615e-05,0.0,0 STARLINK-3251,1 49729U 21115F   22198.54315767  .00001615  00000-0  11956-3 0  9999,2 49729  53.2184  14.8791 0001616  86.6825 273.4352 15.08838432 34437,6917.885,95.438,540.868,538.632,0.0
49729.0,STARLINK-3251,PAYLOAD,2022-07-17 19:23:41,15.08836588,0.0001602,53.2188,13.6907,89.3558,270.7617,8.0189e-05,9.88e-06,0.0,0 STARLINK-3251,1 49729U 21115F   22198.80812066  .00000988  00000-0  80189-4 0  9999,2 49729  53.2188  13.6907 0001602  89.3558 270.7617 15.08836588 34473,6917.891,95.438,540.864,538.648,0.0
49729.0,STARLINK-3251,PAYLOAD,2022-07-18 04:55:59,15.08846899,0.0001541999999999,53.2187,11.9056,86.6182,273.4986,9.2633e-05,1.187e-05,0.0,0 STARLINK-3251,1 49729U 21115F   22199.20555331  .00001187  00000-0  92633-4 0  9992,2 49729  53.2187  11.9056 0001542  86.6182 273.4986 15.08846899 35649,6917.859,95.437,540.7909999999998,538.658,0.0
49729.0,STARLINK-3251,PAYLOAD,2022-07-18 12:52:55,15.08838333,0.0001477,53.2186,10.4191,87.9111,272.2051,0.00012748,1.741e-05,0.0,0 STARLINK-3251,1 49729U 21115F   22199.53675832  .00001741  00000-0  12748-3 0  9991,2 49729  53.2186  10.4191 0001477  87.9111 272.2051 15.08838333 35694,6917.885,95.438,540.7719999999998,538.729,0.0
49729.0,STARLINK-3251,PAYLOAD,2022-07-18 19:14:28,15.08849856,0.000128,53.2187,9.2297,74.825,285.2884,-4.9243e-05,-1.072e-05,0.0,0 STARLINK-3251,1 49729U 21115F   22199.80171514 -.00001072  00000-0 -49243-4 0  9999,2 49729  53.2187   9.2297 0001280  74.8250 285.2884 15.08849856 34621,6917.85,95.437,540.601,538.83,0.0
49729.0,STARLINK-3251,PAYLOAD,2022-07-19 11:08:19,15.08843175,0.0001488,53.2189,6.2562,89.2912,270.825,0.00010334,1.357e-05,0.0,0 STARLINK-3251,1 49729U 21115F   22200.46411508  .00001357  00000-0  10334-3 0  9996,2 49729  53.2189   6.2562 0001488  89.2912 270.8250 15.08843175 34726,6917.871,95.437,540.765,538.706,0.0
49729.0,STARLINK-3251,PAYLOAD,2022-07-19 19:05:15,15.08840988,0.0001464,53.2188,4.7695,88.8264,271.2895,9.395e-05,1.208e-05,0.0,0 STARLINK-3251,1 49729U 21115F   22200.79531553  .00001208  00000-0  93950-4 0  9996,2 49729  53.2188   4.7695 0001464  88.8264 271.2895 15.08840988 35881,6917.877,95.437,540.755,538.73,0.0
49729.0,STARLINK-3251,PAYLOAD,2022-07-20 14:09:52,15.08845969,0.0001465,53.2188,1.2009999999999998,88.7016,271.4144,0.00012249,1.662e-05,0.0,0 STARLINK-3251,1 49729U 21115F   22201.59018940  .00001662  00000-0  12249-3 0  9990,2 49729  53.2188   1.2010 0001465  88.7016 271.4144 15.08845969 34892,6917.861999999999,95.437,540.741,538.714,0.0
49729.0,STARLINK-3251,PAYLOAD,2022-07-20 20:31:24,15.0884692,0.0001488,53.2187,0.0118,87.6386,272.4776,0.00014618,2.04e-05,0.0,0 STARLINK-3251,1 49729U 21115F   22201.85514767  .00002040  00000-0  14618-3 0  9990,2 49729  53.2187   0.0118 0001488  87.6386 272.4776 15.08846920 36049,6917.859,95.437,540.754,538.695,0.0
49729.0,STARLINK-3251,PAYLOAD,2022-07-21 10:49:54,15.08828425,0.0001029,53.2188,357.3357,75.1426,284.968,-1.4885e-05,-5.25e-06,0.0,0 STARLINK-3251,1 49729U 21115F   22202.45132402 -.00000525  00000-0 -14885-4 0  9994,2 49729  53.2188 357.3357 0001029  75.1426 284.9680 15.08828425 36133,6917.916,95.438,540.493,539.069,0.0
